IRIDIUM 39              
1 25042U 97069D   25149.14087878  .00000521  00000+0  13111-3 0  9995
2 25042  86.3944 219.2913 0018264  18.2286 341.9568 14.49198984446203
IRIDIUM 42              
1 25077U 97077A   25149.64413251  .00000443  00000+0  14491-3 0  9990
2 25077  86.3971 247.0993 0002491 112.4979 247.6481 14.36338234438532
IRIDIUM 44              
1 25078U 97077B   25149.16227529  .00000408  00000+0  12268-3 0  9990
2 25078  86.3983 229.2759 0004194  93.0096 267.1583 14.40227581440961
IRIDIUM 45              
1 25104U 97082A   25149.64828114  .00027413  00000+0  98880-3 0  9995
2 25104  86.3596  56.8926 0120470  42.2964 318.7491 15.21681414449472
IRIDIUM 24              
1 25105U 97082B   25149.22925650  .00000538  00000+0  15753-3 0  9990
2 25105  86.3897  88.3417 0012809 132.4616 227.7669 14.42081337440482
IRIDIUM 51              
1 25262U 98018A   25149.17783801  .00041006  00000+0  94151-3 0  9992
2 25262  86.3852  65.2382 0086286 325.4098  34.1558 15.38612103444321
IRIDIUM 57              
1 25273U 98019B   25149.28667880  .00000325  00000+0  10545-3 0  9999
2 25273  86.3966 153.1797 0002328  91.4253 268.7211 14.35881112422077
