<?xml version="1.0" encoding="UTF-8"?>
<ndm xmlns:xsi="http://www.w3.org/2001/XMLSchema-instance" xsi:noNamespaceSchemaLocation="https://sanaregistry.org/r/ndmxml_unqualified/ndmxml-2.0.0-master-2.0.xsd">
<omm id="CCSDS_OMM_VERS" version="2.0">
<header><CREATION_DATE/><ORIGINATOR/></header><body><segment><metadata><OBJECT_NAME>IRIDIUM 39</OBJECT_NAME><OBJECT_ID>1997-069D</OBJECT_ID><CENTER_NAME>EARTH</CENTER_NAME><REF_FRAME>TEME</REF_FRAME><TIME_SYSTEM>UTC</TIME_SYSTEM><MEAN_ELEMENT_THEORY>SGP4</MEAN_ELEMENT_THEORY></metadata><data><meanElements><EPOCH>2025-05-29T03:22:51.926592</EPOCH><MEAN_MOTION>14.49198984</MEAN_MOTION><ECCENTRICITY>.0018264</ECCENTRICITY><INCLINATION>86.3944</INCLINATION><RA_OF_ASC_NODE>219.2913</RA_OF_ASC_NODE><ARG_OF_PERICENTER>18.2286</ARG_OF_PERICENTER><MEAN_ANOMALY>341.9568</MEAN_ANOMALY></meanElements><tleParameters><EPHEMERIS_TYPE>0</EPHEMERIS_TYPE><CLASSIFICATION_TYPE>U</CLASSIFICATION_TYPE><NORAD_CAT_ID>25042</NORAD_CAT_ID><ELEMENT_SET_NO>999</ELEMENT_SET_NO><REV_AT_EPOCH>44620</REV_AT_EPOCH><BSTAR>.13111E-3</BSTAR><MEAN_MOTION_DOT>.521E-5</MEAN_MOTION_DOT><MEAN_MOTION_DDOT>0</MEAN_MOTION_DDOT></tleParameters></data></segment></body></omm>
<omm id="CCSDS_OMM_VERS" version="2.0">
<header><CREATION_DATE/><ORIGINATOR/></header><body><segment><metadata><OBJECT_NAME>IRIDIUM 42</OBJECT_NAME><OBJECT_ID>1997-077A</OBJECT_ID><CENTER_NAME>EARTH</CENTER_NAME><REF_FRAME>TEME</REF_FRAME><TIME_SYSTEM>UTC</TIME_SYSTEM><MEAN_ELEMENT_THEORY>SGP4</MEAN_ELEMENT_THEORY></metadata><data><meanElements><EPOCH>2025-05-29T15:27:33.048864</EPOCH><MEAN_MOTION>14.36338234</MEAN_MOTION><ECCENTRICITY>.0002491</ECCENTRICITY><INCLINATION>86.3971</INCLINATION><RA_OF_ASC_NODE>247.0993</RA_OF_ASC_NODE><ARG_OF_PERICENTER>112.4979</ARG_OF_PERICENTER><MEAN_ANOMALY>247.6481</MEAN_ANOMALY></meanElements><tleParameters><EPHEMERIS_TYPE>0</EPHEMERIS_TYPE><CLASSIFICATION_TYPE>U</CLASSIFICATION_TYPE><NORAD_CAT_ID>25077</NORAD_CAT_ID><ELEMENT_SET_NO>999</ELEMENT_SET_NO><REV_AT_EPOCH>43853</REV_AT_EPOCH><BSTAR>.14491E-3</BSTAR><MEAN_MOTION_DOT>.443E-5</MEAN_MOTION_DOT><MEAN_MOTION_DDOT>0</MEAN_MOTION_DDOT></tleParameters></data></segment></body></omm>
<omm id="CCSDS_OMM_VERS" version="2.0">
<header><CREATION_DATE/><ORIGINATOR/></header><body><segment><metadata><OBJECT_NAME>IRIDIUM 44</OBJECT_NAME><OBJECT_ID>1997-077B</OBJECT_ID><CENTER_NAME>EARTH</CENTER_NAME><REF_FRAME>TEME</REF_FRAME><TIME_SYSTEM>UTC</TIME_SYSTEM><MEAN_ELEMENT_THEORY>SGP4</MEAN_ELEMENT_THEORY></metadata><data><meanElements><EPOCH>2025-05-29T03:53:40.585056</EPOCH><MEAN_MOTION>14.40227581</MEAN_MOTION><ECCENTRICITY>.0004194</ECCENTRICITY><INCLINATION>86.3983</INCLINATION><RA_OF_ASC_NODE>229.2759</RA_OF_ASC_NODE><ARG_OF_PERICENTER>93.0096</ARG_OF_PERICENTER><MEAN_ANOMALY>267.1583</MEAN_ANOMALY></meanElements><tleParameters><EPHEMERIS_TYPE>0</EPHEMERIS_TYPE><CLASSIFICATION_TYPE>U</CLASSIFICATION_TYPE><NORAD_CAT_ID>25078</NORAD_CAT_ID><ELEMENT_SET_NO>999</ELEMENT_SET_NO><REV_AT_EPOCH>44096</REV_AT_EPOCH><BSTAR>.12268E-3</BSTAR><MEAN_MOTION_DOT>.408E-5</MEAN_MOTION_DOT><MEAN_MOTION_DDOT>0</MEAN_MOTION_DDOT></tleParameters></data></segment></body></omm>
<omm id="CCSDS_OMM_VERS" version="2.0">
<header><CREATION_DATE/><ORIGINATOR/></header><body><segment><metadata><OBJECT_NAME>IRIDIUM 45</OBJECT_NAME><OBJECT_ID>1997-082A</OBJECT_ID><CENTER_NAME>EARTH</CENTER_NAME><REF_FRAME>TEME</REF_FRAME><TIME_SYSTEM>UTC</TIME_SYSTEM><MEAN_ELEMENT_THEORY>SGP4</MEAN_ELEMENT_THEORY></metadata><data><meanElements><EPOCH>2025-05-29T15:33:31.490496</EPOCH><MEAN_MOTION>15.21681414</MEAN_MOTION><ECCENTRICITY>.012047</ECCENTRICITY><INCLINATION>86.3596</INCLINATION><RA_OF_ASC_NODE>56.8926</RA_OF_ASC_NODE><ARG_OF_PERICENTER>42.2964</ARG_OF_PERICENTER><MEAN_ANOMALY>318.7491</MEAN_ANOMALY></meanElements><tleParameters><EPHEMERIS_TYPE>0</EPHEMERIS_TYPE><CLASSIFICATION_TYPE>U</CLASSIFICATION_TYPE><NORAD_CAT_ID>25104</NORAD_CAT_ID><ELEMENT_SET_NO>999</ELEMENT_SET_NO><REV_AT_EPOCH>44947</REV_AT_EPOCH><BSTAR>.9888E-3</BSTAR><MEAN_MOTION_DOT>.27413E-3</MEAN_MOTION_DOT><MEAN_MOTION_DDOT>0</MEAN_MOTION_DDOT></tleParameters></data></segment></body></omm>
<omm id="CCSDS_OMM_VERS" version="2.0">
<header><CREATION_DATE/><ORIGINATOR/></header><body><segment><metadata><OBJECT_NAME>IRIDIUM 24</OBJECT_NAME><OBJECT_ID>1997-082B</OBJECT_ID><CENTER_NAME>EARTH</CENTER_NAME><REF_FRAME>TEME</REF_FRAME><TIME_SYSTEM>UTC</TIME_SYSTEM><MEAN_ELEMENT_THEORY>SGP4</MEAN_ELEMENT_THEORY></metadata><data><meanElements><EPOCH>2025-05-29T05:30:07.761600</EPOCH><MEAN_MOTION>14.42081337</MEAN_MOTION><ECCENTRICITY>.0012809</ECCENTRICITY><INCLINATION>86.3897</INCLINATION><RA_OF_ASC_NODE>88.3417</RA_OF_ASC_NODE><ARG_OF_PERICENTER>132.4616</ARG_OF_PERICENTER><MEAN_ANOMALY>227.7669</MEAN_ANOMALY></meanElements><tleParameters><EPHEMERIS_TYPE>0</EPHEMERIS_TYPE><CLASSIFICATION_TYPE>U</CLASSIFICATION_TYPE><NORAD_CAT_ID>25105</NORAD_CAT_ID><ELEMENT_SET_NO>999</ELEMENT_SET_NO><REV_AT_EPOCH>44048</REV_AT_EPOCH><BSTAR>.15753E-3</BSTAR><MEAN_MOTION_DOT>.538E-5</MEAN_MOTION_DOT><MEAN_MOTION_DDOT>0</MEAN_MOTION_DDOT></tleParameters></data></segment></body></omm>
<omm id="CCSDS_OMM_VERS" version="2.0">
<header><CREATION_DATE/><ORIGINATOR/></header><body><segment><metadata><OBJECT_NAME>IRIDIUM 51</OBJECT_NAME><OBJECT_ID>1998-018A</OBJECT_ID><CENTER_NAME>EARTH</CENTER_NAME><REF_FRAME>TEME</REF_FRAME><TIME_SYSTEM>UTC</TIME_SYSTEM><MEAN_ELEMENT_THEORY>SGP4</MEAN_ELEMENT_THEORY></metadata><data><meanElements><EPOCH>2025-05-29T04:16:05.204064</EPOCH><MEAN_MOTION>15.38612103</MEAN_MOTION><ECCENTRICITY>.0086286</ECCENTRICITY><INCLINATION>86.3852</INCLINATION><RA_OF_ASC_NODE>65.2382</RA_OF_ASC_NODE><ARG_OF_PERICENTER>325.4098</ARG_OF_PERICENTER><MEAN_ANOMALY>34.1558</MEAN_ANOMALY></meanElements><tleParameters><EPHEMERIS_TYPE>0</EPHEMERIS_TYPE><CLASSIFICATION_TYPE>U</CLASSIFICATION_TYPE><NORAD_CAT_ID>25262</NORAD_CAT_ID><ELEMENT_SET_NO>999</ELEMENT_SET_NO><REV_AT_EPOCH>44432</REV_AT_EPOCH><BSTAR>.94151E-3</BSTAR><MEAN_MOTION_DOT>.41006E-3</MEAN_MOTION_DOT><MEAN_MOTION_DDOT>0</MEAN_MOTION_DDOT></tleParameters></data></segment></body></omm>
<omm id="CCSDS_OMM_VERS" version="2.0">
<header><CREATION_DATE/><ORIGINATOR/></header><body><segment><metadata><OBJECT_NAME>IRIDIUM 57</OBJECT_NAME><OBJECT_ID>1998-019B</OBJECT_ID><CENTER_NAME>EARTH</CENTER_NAME><REF_FRAME>TEME</REF_FRAME><TIME_SYSTEM>UTC</TIME_SYSTEM><MEAN_ELEMENT_THEORY>SGP4</MEAN_ELEMENT_THEORY></metadata><data><meanElements><EPOCH>2025-05-29T06:52:49.048320</EPOCH><MEAN_MOTION>14.35881112</MEAN_MOTION><ECCENTRICITY>.0002328</ECCENTRICITY><INCLINATION>86.3966</INCLINATION><RA_OF_ASC_NODE>153.1797</RA_OF_ASC_NODE><ARG_OF_PERICENTER>91.4253</ARG_OF_PERICENTER><MEAN_ANOMALY>268.7211</MEAN_ANOMALY></meanElements><tleParameters><EPHEMERIS_TYPE>0</EPHEMERIS_TYPE><CLASSIFICATION_TYPE>U</CLASSIFICATION_TYPE><NORAD_CAT_ID>25273</NORAD_CAT_ID><ELEMENT_SET_NO>999</ELEMENT_SET_NO><REV_AT_EPOCH>42207</REV_AT_EPOCH><BSTAR>.10545E-3</BSTAR><MEAN_MOTION_DOT>.325E-5</MEAN_MOTION_DOT><MEAN_MOTION_DDOT>0</MEAN_MOTION_DDOT></tleParameters></data></segment></body></omm>

</ndm>
